NORAD_CAT_ID,OBJECT_NAME,OBJECT_TYPE,EPOCH,MEAN_MOTION,ECCENTRICITY,INCLINATION,RA_OF_ASC_NODE,ARG_OF_PERICENTER,MEAN_ANOMALY,BSTAR,MEAN_MOTION_DOT,MEAN_MOTION_DDOT,TLE_LINE0,TLE_LINE1,TLE_LINE2,SEMIMAJOR_AXIS,PERIOD,APOGEE,PERIGEE,DECAYED
56783.0,STARLINK-6357,PAYLOAD,2023-09-10 01:25:57,15.69921716,0.000375,69.997,127.129,266.6752,93.4015,4.2602e-06,2.99e-06,0.0,0 STARLINK-6357,1 56783U 23078S   23253.05969347  .00000299  00000-0  42602-5 0  9996,2 56783  69.9970 127.1290 0003750 266.6752  93.4015 15.69921716 16288,6737.258,91.724,361.649,356.596,0.0
56783.0,STARLINK-6357,PAYLOAD,2023-09-10 18:15:15,15.69904633,0.0003394,69.9974,125.1604,262.7943,97.2866,-1.9432e-05,-2.547e-05,0.0,0 STARLINK-6357,1 56783U 23078S   23253.76059090 -.00002547  00000-0 -19432-4 0  9993,2 56783  69.9974 125.1604 0003394 262.7943  97.2866 15.69904633 16399,6737.307,91.725,361.458,356.885,0.0
56783.0,STARLINK-6357,PAYLOAD,2023-09-11 01:54:00,15.69915875,0.0003404,69.9977,124.2628,265.6749,94.4058,-7.3898e-06,-1.101e-05,0.0,0 STARLINK-6357,1 56783U 23078S   23254.07916734 -.00001101  00000-0 -73898-5 0  9997,2 56783  69.9977 124.2628 0003404 265.6749  94.4058 15.69915875 16444,6737.275,91.725,361.433,356.846,0.0
56783.0,STARLINK-6357,PAYLOAD,2023-09-11 17:11:30,15.69924125,0.000353,69.9966,122.4718,268.2887,91.7904,1.83e-05,1.988e-05,0.0,0 STARLINK-6357,1 56783U 23078S   23254.71632427  .00001988  00000-0  18300-4 0  9999,2 56783  69.9966 122.4718 0003530 268.2887  91.7904 15.69924125 16543,6737.251,91.724,361.494,356.738,0.0
56783.0,STARLINK-6357,PAYLOAD,2023-09-12 00:50:16,15.69924121,0.0003553,69.9968,121.5762,269.3826,90.6963,1.7933e-05,1.944e-05,0.0,0 STARLINK-6357,1 56783U 23078S   23255.03490846  .00001944  00000-0  17933-4 0  9995,2 56783  69.9968 121.5762 0003553 269.3826  90.6963 15.69924121 16330,6737.251,91.724,361.51,356.722,0.0
56783.0,STARLINK-6357,PAYLOAD,2023-09-12 17:39:32,15.69931563,0.0003644,69.9963,119.6063,273.7068,86.3711,-1.3182e-05,-1.798e-05,0.0,0 STARLINK-6357,1 56783U 23078S   23255.73579353 -.00001798  00000-0 -13182-4 0  9994,2 56783  69.9963 119.6063 0003644 273.7068  86.3711 15.69931563 16707,6737.23,91.724,361.55,356.64,0.0
56783.0,STARLINK-6357,PAYLOAD,2023-09-12 19:11:17,15.69932218,0.0003985,69.9965,119.4265,274.6505,85.4236,-1.9558e-05,-2.565e-05,0.0,0 STARLINK-6357,1 56783U 23078S   23255.79951065 -.00002565  00000-0 -19558-4 0  9990,2 56783  69.9965 119.4265 0003985 274.6505  85.4236 15.69932218 16457,6737.228,91.724,361.778,356.408,0.0
56783.0,STARLINK-6357,PAYLOAD,2023-09-12 23:46:32,15.69935235,0.0003124,69.9962,118.8879,257.7366,102.348,-1.5702e-05,-2.101e-05,0.0,0 STARLINK-6357,1 56783U 23078S   23255.99065667 -.00002101  00000-0 -15702-4 0  9999,2 56783  69.9962 118.8879 0003124 257.7366 102.3480 15.69935235 16744,6737.219,91.724,361.189,356.98,0.0
56783.0,STARLINK-6357,PAYLOAD,2023-09-13 18:07:36,15.69898885,0.0003663,69.9964,116.7391,266.0291,94.0486,-2.1811e-05,-2.832e-05,0.0,0 STARLINK-6357,1 56783U 23078S   23256.75528088 -.00002832  00000-0 -21811-4 0  9994,2 56783  69.9964 116.7391 0003663 266.0291  94.0486 15.69898885 16865,6737.323,91.726,361.656,356.72,0.0
56783.0,STARLINK-6357,PAYLOAD,2023-09-14 01:46:20,15.69914372,0.0003969,69.9963,115.843,263.6357,96.4387,-4.2528e-06,-7.24e-06,0.0,0 STARLINK-6357,1 56783U 23078S   23257.07385380 -.00000724  00000-0 -42528-5 0  9993,2 56783  69.9963 115.8430 0003969 263.6357  96.4387 15.69914372 16915,6737.279,91.725,361.818,356.47,0.0
56783.0,STARLINK-6357,PAYLOAD,2023-09-14 17:03:51,15.6992301,0.0003419,69.9974,114.051,268.8682,91.2122,2.8258e-05,3.186e-05,0.0,0 STARLINK-6357,1 56783U 23078S   23257.71100996  .00003186  00000-0  28258-4 0  9998,2 56783  69.9974 114.0510 0003419 268.8682  91.2122 15.69923010 17016,6737.254,91.724,361.423,356.816,0.0
56783.0,STARLINK-6357,PAYLOAD,2023-09-15 00:42:37,15.69915925,0.0003101,69.9979,113.1587,248.6869,111.3996,7.8112e-06,7.26e-06,0.0,0 STARLINK-6357,1 56783U 23078S   23258.02960341  .00000726  00000-0  78112-5 0  9993,2 56783  69.9979 113.1587 0003101 248.6869 111.3996 15.69915925 17060,6737.275,91.725,361.229,357.05,0.0
56783.0,STARLINK-6357,PAYLOAD,2023-09-15 23:38:54,15.6990868,0.0003708,69.9959,110.4697,272.5909,87.4862,2.2625e-05,2.507e-05,0.0,0 STARLINK-6357,1 56783U 23078S   23258.98535487  .00002507  00000-0  22625-4 0  9993,2 56783  69.9959 110.4697 0003708 272.5909  87.4862 15.69908680 16956,6737.295,91.725,361.658,356.662,0.0
56783.0,STARLINK-6357,PAYLOAD,2023-09-16 16:28:10,15.69924725,0.0003792,69.9949,108.499,272.9815,87.0946,-3.29e-07,-2.53e-06,0.0,0 STARLINK-6357,1 56783U 23078S   23259.68623422 -.00000253  00000-0 -32900-6 0  9995,2 56783  69.9949 108.4990 0003792 272.9815  87.0946 15.69924725 17320,6737.249,91.724,361.669,356.56,0.0
56783.0,STARLINK-6357,PAYLOAD,2023-09-17 00:06:56,15.69928,0.000392,69.997,107.6032,270.0409,90.0338,4.5566e-06,3.35e-06,0.0,0 STARLINK-6357,1 56783U 23078S   23260.00481482  .00000335  00000-0  45566-5 0  9991,2 56783  69.9970 107.6032 0003920 270.0409  90.0338 15.69928000 17119,6737.24,91.724,361.746,356.464,0.0
56783.0,STARLINK-6357,PAYLOAD,2023-09-17 16:56:12,15.69926333,0.000398,69.9963,105.6317,272.1666,87.9074,1.7348e-05,1.874e-05,0.0,0 STARLINK-6357,1 56783U 23078S   23260.70569541  .00001874  00000-0  17348-4 0  9996,2 56783  69.9963 105.6317 0003980 272.1666  87.9074 15.69926333 17488,6737.245,91.724,361.791,356.428,0.0
56783.0,STARLINK-6357,PAYLOAD,2023-09-18 14:20:44,15.69909215,0.000385,69.997,103.1225,272.5644,87.5111,1.8016e-05,1.953e-05,0.0,0 STARLINK-6357,1 56783U 23078S   23261.59773925  .00001953  00000-0  18016-4 0  9998,2 56783  69.9970 103.1225 0003850 272.5644  87.5111 15.69909215 17368,6737.294,91.725,361.753,356.565,0.0
56783.0,STARLINK-6357,PAYLOAD,2023-09-18 15:52:29,15.69906459,0.0003884,69.9973,102.9432,271.3095,88.7656,2.1426e-05,2.362e-05,0.0,0 STARLINK-6357,1 56783U 23078S   23261.66145675  .00002362  00000-0  21426-4 0  9995,2 56783  69.9973 102.9432 0003884 271.3095  88.7656 15.69906459 17636,6737.302,91.725,361.783,356.55,0.0
56783.0,STARLINK-6357,PAYLOAD,2023-09-18 17:24:14,15.69920679,0.0004145,69.9969,102.7645,276.728,83.3444,1.7078e-06,-8e-08,0.0,0 STARLINK-6357,1 56783U 23078S   23261.72517032 -.00000008  00000-0  17078-5 0  9997,2 56783  69.9969 102.7645 0004145 276.7280  83.3444 15.69920679 17389,6737.261,91.724,361.919,356.333,0.0
56783.0,STARLINK-6357,PAYLOAD,2023-09-19 01:03:00,15.69917707,0.0003462,69.9979,101.8677,277.5264,82.5538,2.9554e-05,3.341e-05,0.0,0 STARLINK-6357,1 56783U 23078S   23262.04375024  .00003341  00000-0  29554-4 0  9999,2 56783  69.9979 101.8677 0003462 277.5264  82.5538 15.69917707 17694,6737.269,91.725,361.467,356.802,0.0
56783.0,STARLINK-6357,PAYLOAD,2023-09-19 19:24:02,15.69911523,0.000359,69.9972,99.719,270.5599,89.5185,-7.5382e-06,-1.119e-05,0.0,0 STARLINK-6357,1 56783U 23078S   23262.80836128 -.00001119  00000-0 -75382-5 0  9994,2 56783  69.9972  99.7190 0003590 270.5599  89.5185 15.69911523 17817,6737.287,91.725,361.571,356.733,0.0
56783.0,STARLINK-6357,PAYLOAD,2023-09-20 13:45:03,15.6991953,0.0003891,69.9973,97.57,271.5871,88.4879,5.9875e-06,5.07e-06,0.0,0 STARLINK-6357,1 56783U 23078S   23263.57295628  .00000507  00000-0  59875-5 0  9990,2 56783  69.9973  97.5700 0003891 271.5871  88.4879 15.69919530 17677,6737.264,91.724,361.751,356.508,0.0
56783.0,STARLINK-6357,PAYLOAD,2023-09-20 16:48:33,15.699177,0.0003669,69.9981,97.2133,268.9666,91.1109,4.5679e-06,3.36e-06,0.0,0 STARLINK-6357,1 56783U 23078S   23263.70039163  .00000336  00000-0  45679-5 0  9992,2 56783  69.9981  97.2133 0003669 268.9666  91.1109 15.69917700 17953,6737.269,91.725,361.606,356.663,0.0
56783.0,STARLINK-6357,PAYLOAD,2023-09-20 21:23:48,15.6992447,0.000332,69.9988,96.676,264.5133,95.5684,1.081e-05,1.087e-05,0.0,0 STARLINK-6357,1 56783U 23078S   23263.89153589  .00001087  00000-0  10810-4 0  9993,2 56783  69.9988  96.6760 0003320 264.5133  95.5684 15.69924470 17727,6737.25,91.724,361.352,356.878,0.0
56783.0,STARLINK-6357,PAYLOAD,2023-09-21 00:27:19,15.69914905,0.0003526,69.9975,96.3161,269.0059,91.0732,-1.8888e-07,-2.36e-06,0.0,0 STARLINK-6357,1 56783U 23078S   23264.01897772 -.00000236  00000-0 -18888-6 0  9999,2 56783  69.9975  96.3161 0003526 269.0059  91.0732 15.69914905 17749,6737.277,91.725,361.518,356.767,0.0
56783.0,STARLINK-6357,PAYLOAD,2023-09-21 18:48:21,15.69917505,0.000347,69.9974,94.1664,267.5561,92.5237,2.0871e-05,2.297e-05,0.0,0 STARLINK-6357,1 56783U 23078S   23264.78357646  .00002297  00000-0  20871-4 0  9994,2 56783  69.9974  94.1664 0003470 267.5561  92.5237 15.69917505 18129,6737.27,91.725,361.473,356.797,0.0
56783.0,STARLINK-6357,PAYLOAD,2023-09-21 21:51:50,15.69922166,0.0002969,69.9981,93.8083,266.8382,93.2474,2.5539e-05,2.859e-05,0.0,0 STARLINK-6357,1 56783U 23078S   23264.91100680  .00002859  00000-0  25539-4 0  9993,2 56783  69.9981  93.8083 0002969 266.8382  93.2474 15.69922166 17885,6737.257,91.724,361.122,357.121,0.0
56783.0,STARLINK-6357,PAYLOAD,2023-09-22 13:09:21,15.69936371,0.0003399,69.9969,92.0172,272.9027,87.178,2.2549e-05,2.501e-05,0.0,0 STARLINK-6357,1 56783U 23078S   23265.54816450  .00002501  00000-0  22549-4 0  9994,2 56783  69.9969  92.0172 0003399 272.9027  87.1780 15.69936371 17989,6737.216,91.723,361.371,356.791,0.0
56783.0,STARLINK-6357,PAYLOAD,2023-09-22 16:12:53,15.69912682,0.000375,69.9967,91.6583,263.2269,96.85,-9.031e-06,-1.298e-05,0.0,0 STARLINK-6357,1 56783U 23078S   23265.67561641 -.00001298  00000-0 -90310-5 0  9993,2 56783  69.9967  91.6583 0003750 263.2269  96.8500 15.69912682 18268,6737.284,91.725,361.675,356.622,0.0
56783.0,STARLINK-6357,PAYLOAD,2023-09-22 20:48:08,15.69908294,0.0003561,69.997,91.1192,274.7754,85.3035,-5.693e-06,-8.97e-06,0.0,0 STARLINK-6357,1 56783U 23078S   23265.86677065 -.00000897  00000-0 -56930-5 0  9996,2 56783  69.9970  91.1192 0003561 274.7754  85.3035 15.69908294 18034,6737.296,91.725,361.561,356.762,0.0
